STARLINK-32223          
1 60373U 24138U   26004.92371277  .00000575  00000+0  31533-4 0  9992
2 60373  53.1587 245.8680 0001019  65.7769 294.3338 15.30189225 80763
STARLINK-32180          
1 60374U 24138V   26005.64428151  .00002160  00000+0  85068-4 0  9991
2 60374  53.1601 242.5396 0001193  88.8920 271.2217 15.30190249 80978
STARLINK-32281          
1 60375U 24138W   26005.35558702 -.00000316  00000+0  14522-5 0  9996
2 60375  53.1601 243.5868 0001149  66.0452 294.0669 15.30201433 80830
STARLINK-32277          
1 60376U 24138X   26005.65061405  .00002725  00000+0  10410-3 0  9994
2 60376  53.1590 242.5801 0001215  88.8761 271.2379 15.30192222 80978
STARLINK-32269          
1 60377U 24138Y   26005.37353356  .00000209  00000+0  19204-4 0  9999
2 60377  53.1616 243.6924 0001564  88.8970 271.2210 15.30187437 80937
STARLINK-11228 [DTC]    
1 60398U 24141A   26005.47210449  .00001666  00000+0  18616-4 0  9996
2 60398  53.1595  37.9124 0001557 107.1440 252.9749 15.69710438 81761
STARLINK-11182 [DTC]    
1 60399U 24141B   26005.45738217  .00001953  00000+0  20965-4 0  9992
2 60399  53.1591  37.8236 0001584  66.3583 293.7601 15.69730454 81811
STARLINK-11234 [DTC]    
1 60400U 24141C   26005.38881590 -.00000551  00000+0  31178-6 0  9994
2 60400  53.1593  38.1032 0001376  70.0372 290.0794 15.69720543 81755
STARLINK-11232 [DTC]    
1 60401U 24141D   26005.51124423  .00001330  00000+0  15834-4 0  9999
2 60401  53.1589  37.4409 0001057  84.4512 275.6627 15.69714920 81826
STARLINK-11139 [DTC]    
1 60402U 24141E   26005.50633726 -.00000472  00000+0  97000-6 0  9994
2 60402  53.1599  37.4128 0001557  84.5477 275.5718 15.69723914 81825
STARLINK-11158 [DTC]    
1 60403U 24141F   26005.50152599  .00000400  00000+0  81515-5 0  9992
2 60403  53.1607  38.1115 0001076  87.0759 273.0382 15.69738456 81767
STARLINK-11199 [DTC]    
1 60404U 24141G   26005.49662174  .00001096  00000+0  13891-4 0  9999
2 60404  53.1595  38.0795 0001106  84.0593 276.0551 15.69734220 81816
STARLINK-11081 [DTC]    
1 60405U 24141H   26005.36438051  .00001671  00000+0  18643-4 0  9990
2 60405  53.1594  38.6746 0001461  96.2278 263.8907 15.69724766 81742
STARLINK-11150 [DTC]    
1 60406U 24141J   26005.48682010  .00002586  00000+0  26196-4 0  9998
2 60406  53.1588  38.0115 0001160  93.2127 266.9024 15.69711593 81812
STARLINK-11136 [DTC]    
1 60407U 24141K   26005.48191413  .00000024  00000+0  50553-5 0  9991
2 60407  53.1591  37.9773 0001196 114.4400 245.6743 15.69721426 81766
STARLINK-11196 [DTC]    
1 60408U 24141L   26005.47701695 -.00000075  00000+0  42393-5 0  9990
2 60408  53.1581  37.9487 0001200  71.3548 288.7600 15.69708461 81818
