[{"OBJECT_NAME":"STARLINK-32223","OBJECT_ID":"2024-138U","EPOCH":"2026-01-04T22:10:08.783328","MEAN_MOTION":15.30189225,"ECCENTRICITY":0.0001019,"INCLINATION":53.1587,"RA_OF_ASC_NODE":245.868,"ARG_OF_PERICENTER":65.7769,"MEAN_ANOMALY":294.3338,"EPHEMERIS_TYPE":0,"CLASSIFICATION_TYPE":"U","NORAD_CAT_ID":60373,"ELEMENT_SET_NO":999,"REV_AT_EPOCH":8076,"BSTAR":3.1533e-5,"MEAN_MOTION_DOT":5.75e-6,"MEAN_MOTION_DDOT":0},{"OBJECT_NAME":"STARLINK-32180","OBJECT_ID":"2024-138V","EPOCH":"2026-01-05T15:27:45.922464","MEAN_MOTION":15.30190249,"ECCENTRICITY":0.00011938,"INCLINATION":53.1601,"RA_OF_ASC_NODE":242.5396,"ARG_OF_PERICENTER":88.892,"MEAN_ANOMALY":271.2217,"EPHEMERIS_TYPE":0,"CLASSIFICATION_TYPE":"U","NORAD_CAT_ID":60374,"ELEMENT_SET_NO":999,"REV_AT_EPOCH":8097,"BSTAR":8.5068078e-5,"MEAN_MOTION_DOT":2.16e-5,"MEAN_MOTION_DDOT":0},{"OBJECT_NAME":"STARLINK-32281","OBJECT_ID":"2024-138W","EPOCH":"2026-01-05T08:32:02.718528","MEAN_MOTION":15.30201433,"ECCENTRICITY":0.00011497,"INCLINATION":53.1601,"RA_OF_ASC_NODE":243.5868,"ARG_OF_PERICENTER":66.0452,"MEAN_ANOMALY":294.0669,"EPHEMERIS_TYPE":0,"CLASSIFICATION_TYPE":"U","NORAD_CAT_ID":60375,"ELEMENT_SET_NO":999,"REV_AT_EPOCH":8083,"BSTAR":1.452199e-6,"MEAN_MOTION_DOT":-3.16e-6,"MEAN_MOTION_DDOT":0},{"OBJECT_NAME":"STARLINK-32277","OBJECT_ID":"2024-138X","EPOCH":"2026-01-05T15:36:53.053920","MEAN_MOTION":15.30192222,"ECCENTRICITY":0.00012159,"INCLINATION":53.159,"RA_OF_ASC_NODE":242.5801,"ARG_OF_PERICENTER":88.8761,"MEAN_ANOMALY":271.2379,"EPHEMERIS_TYPE":0,"CLASSIFICATION_TYPE":"U","NORAD_CAT_ID":60376,"ELEMENT_SET_NO":999,"REV_AT_EPOCH":8097,"BSTAR":0.00010410421,"MEAN_MOTION_DOT":2.725e-5,"MEAN_MOTION_DDOT":0},{"OBJECT_NAME":"STARLINK-32269","OBJECT_ID":"2024-138Y","EPOCH":"2026-01-05T08:57:53.299584","MEAN_MOTION":15.30187437,"ECCENTRICITY":0.00015643,"INCLINATION":53.1616,"RA_OF_ASC_NODE":243.6924,"ARG_OF_PERICENTER":88.897,"MEAN_ANOMALY":271.221,"EPHEMERIS_TYPE":0,"CLASSIFICATION_TYPE":"U","NORAD_CAT_ID":60377,"ELEMENT_SET_NO":999,"REV_AT_EPOCH":8093,"BSTAR":1.9203593e-5,"MEAN_MOTION_DOT":2.09e-6,"MEAN_MOTION_DDOT":0},{"OBJECT_NAME":"STARLINK-11228 [DTC]","OBJECT_ID":"2024-141A","EPOCH":"2026-01-05T11:19:49.827936","MEAN_MOTION":15.69710438,"ECCENTRICITY":0.00015576,"INCLINATION":53.1595,"RA_OF_ASC_NODE":37.9124,"ARG_OF_PERICENTER":107.144,"MEAN_ANOMALY":252.9749,"EPHEMERIS_TYPE":0,"CLASSIFICATION_TYPE":"U","NORAD_CAT_ID":60398,"ELEMENT_SET_NO":999,"REV_AT_EPOCH":8176,"BSTAR":1.861593e-5,"MEAN_MOTION_DOT":1.666e-5,"MEAN_MOTION_DDOT":0},{"OBJECT_NAME":"STARLINK-11182 [DTC]","OBJECT_ID":"2024-141B","EPOCH":"2026-01-05T10:58:37.819488","MEAN_MOTION":15.69730454,"ECCENTRICITY":0.00015846,"INCLINATION":53.1591,"RA_OF_ASC_NODE":37.8236,"ARG_OF_PERICENTER":66.3583,"MEAN_ANOMALY":293.7601,"EPHEMERIS_TYPE":0,"CLASSIFICATION_TYPE":"U","NORAD_CAT_ID":60399,"ELEMENT_SET_NO":999,"REV_AT_EPOCH":8181,"BSTAR":2.0964996e-5,"MEAN_MOTION_DOT":1.953e-5,"MEAN_MOTION_DDOT":0},{"OBJECT_NAME":"STARLINK-11234 [DTC]","OBJECT_ID":"2024-141C","EPOCH":"2026-01-05T09:19:53.693760","MEAN_MOTION":15.69720543,"ECCENTRICITY":0.00013767,"INCLINATION":53.1593,"RA_OF_ASC_NODE":38.1032,"ARG_OF_PERICENTER":70.0372,"MEAN_ANOMALY":290.0794,"EPHEMERIS_TYPE":0,"CLASSIFICATION_TYPE":"U","NORAD_CAT_ID":60400,"ELEMENT_SET_NO":999,"REV_AT_EPOCH":8175,"BSTAR":3.11778e-7,"MEAN_MOTION_DOT":-5.51e-6,"MEAN_MOTION_DDOT":0},{"OBJECT_NAME":"STARLINK-11232 [DTC]","OBJECT_ID":"2024-141D","EPOCH":"2026-01-05T12:16:11.501472","MEAN_MOTION":15.6971492,"ECCENTRICITY":0.00010579,"INCLINATION":53.1589,"RA_OF_ASC_NODE":37.4409,"ARG_OF_PERICENTER":84.4512,"MEAN_ANOMALY":275.6627,"EPHEMERIS_TYPE":0,"CLASSIFICATION_TYPE":"U","NORAD_CAT_ID":60401,"ELEMENT_SET_NO":999,"REV_AT_EPOCH":8182,"BSTAR":1.5833988e-5,"MEAN_MOTION_DOT":1.33e-5,"MEAN_MOTION_DDOT":0},{"OBJECT_NAME":"STARLINK-11139 [DTC]","OBJECT_ID":"2024-141E","EPOCH":"2026-01-05T12:09:07.539264","MEAN_MOTION":15.69723914,"ECCENTRICITY":0.00015573,"INCLINATION":53.1599,"RA_OF_ASC_NODE":37.4128,"ARG_OF_PERICENTER":84.5477,"MEAN_ANOMALY":275.5718,"EPHEMERIS_TYPE":0,"CLASSIFICATION_TYPE":"U","NORAD_CAT_ID":60402,"ELEMENT_SET_NO":999,"REV_AT_EPOCH":8182,"BSTAR":9.70001e-7,"MEAN_MOTION_DOT":-4.72e-6,"MEAN_MOTION_DDOT":0},{"OBJECT_NAME":"STARLINK-11158 [DTC]","OBJECT_ID":"2024-141F","EPOCH":"2026-01-05T12:02:11.845536","MEAN_MOTION":15.69738456,"ECCENTRICITY":0.00010768,"INCLINATION":53.1607,"RA_OF_ASC_NODE":38.1115,"ARG_OF_PERICENTER":87.0759,"MEAN_ANOMALY":273.0382,"EPHEMERIS_TYPE":0,"CLASSIFICATION_TYPE":"U","NORAD_CAT_ID":60403,"ELEMENT_SET_NO":999,"REV_AT_EPOCH":8176,"BSTAR":8.151455e-6,"MEAN_MOTION_DOT":4.0e-6,"MEAN_MOTION_DDOT":0},{"OBJECT_NAME":"STARLINK-11199 [DTC]","OBJECT_ID":"2024-141G","EPOCH":"2026-01-05T11:55:08.118336","MEAN_MOTION":15.6973422,"ECCENTRICITY":0.00011062,"INCLINATION":53.1595,"RA_OF_ASC_NODE":38.0795,"ARG_OF_PERICENTER":84.0593,"MEAN_ANOMALY":276.0551,"EPHEMERIS_TYPE":0,"CLASSIFICATION_TYPE":"U","NORAD_CAT_ID":60404,"ELEMENT_SET_NO":999,"REV_AT_EPOCH":8181,"BSTAR":1.3891249e-5,"MEAN_MOTION_DOT":1.096e-5,"MEAN_MOTION_DDOT":0},{"OBJECT_NAME":"STARLINK-11081 [DTC]","OBJECT_ID":"2024-141H","EPOCH":"2026-01-05T08:44:42.476064","MEAN_MOTION":15.69724766,"ECCENTRICITY":0.00014613,"INCLINATION":53.1594,"RA_OF_ASC_NODE":38.6746,"ARG_OF_PERICENTER":96.2278,"MEAN_ANOMALY":263.8907,"EPHEMERIS_TYPE":0,"CLASSIFICATION_TYPE":"U","NORAD_CAT_ID":60405,"ELEMENT_SET_NO":999,"REV_AT_EPOCH":8174,"BSTAR":1.8643492e-5,"MEAN_MOTION_DOT":1.671e-5,"MEAN_MOTION_DDOT":0},{"OBJECT_NAME":"STARLINK-11150 [DTC]","OBJECT_ID":"2024-141J","EPOCH":"2026-01-05T11:41:01.256640","MEAN_MOTION":15.69711593,"ECCENTRICITY":0.00011602,"INCLINATION":53.1588,"RA_OF_ASC_NODE":38.0115,"ARG_OF_PERICENTER":93.2127,"MEAN_ANOMALY":266.9024,"EPHEMERIS_TYPE":0,"CLASSIFICATION_TYPE":"U","NORAD_CAT_ID":60406,"ELEMENT_SET_NO":999,"REV_AT_EPOCH":8181,"BSTAR":2.6195738e-5,"MEAN_MOTION_DOT":2.586e-5,"MEAN_MOTION_DDOT":0},{"OBJECT_NAME":"STARLINK-11136 [DTC]","OBJECT_ID":"2024-141K","EPOCH":"2026-01-05T11:33:57.380832","MEAN_MOTION":15.69721426,"ECCENTRICITY":0.0001196,"INCLINATION":53.1591,"RA_OF_ASC_NODE":37.9773,"ARG_OF_PERICENTER":114.44,"MEAN_ANOMALY":245.6743,"EPHEMERIS_TYPE":0,"CLASSIFICATION_TYPE":"U","NORAD_CAT_ID":60407,"ELEMENT_SET_NO":999,"REV_AT_EPOCH":8176,"BSTAR":5.055322e-6,"MEAN_MOTION_DOT":2.4e-7,"MEAN_MOTION_DDOT":0},{"OBJECT_NAME":"STARLINK-11196 [DTC]","OBJECT_ID":"2024-141L","EPOCH":"2026-01-05T11:26:54.264480","MEAN_MOTION":15.69708461,"ECCENTRICITY":0.00012005,"INCLINATION":53.1581,"RA_OF_ASC_NODE":37.9487,"ARG_OF_PERICENTER":71.3548,"MEAN_ANOMALY":288.76,"EPHEMERIS_TYPE":0,"CLASSIFICATION_TYPE":"U","NORAD_CAT_ID":60408,"ELEMENT_SET_NO":999,"REV_AT_EPOCH":8181,"BSTAR":4.23925e-6,"MEAN_MOTION_DOT":-7.5e-7,"MEAN_MOTION_DDOT":0}]
